{"type": "FeatureCollection", "features": [ {"type": "Feature", "properties": {"norad_id": 36011, "name": "IRIDIUM 33 DEB", "group": "iridium-33-debris", "lat": 80.17749320349839, "lon": -162.2028974664939, "alt_km": 757.4934464121916, "timestamp": "2025-12-03T06:58:43.627228+00:00", "meta": {"OBJECT_NAME": "IRIDIUM 33 DEB", "OBJECT_ID": "1997-051US", "EPOCH": "2025-11-27T22:48:02.153088", "MEAN_MOTION": 14.41259363, "ECCENTRICITY": 0.0016688, "INCLINATION": 86.3418, "RA_OF_ASC_NODE": 41.7752, "ARG_OF_PERICENTER": 268.8947, "MEAN_ANOMALY": 217.0188, "EPHEMERIS_TYPE": 0, "CLASSIFICATION_TYPE": "U", "NORAD_CAT_ID": 36011, "ELEMENT_SET_NO": 999, "REV_AT_EPOCH": 64327, "BSTAR": 0.00058853, "MEAN_MOTION_DOT": 1.923e-05, "MEAN_MOTION_DDOT": 0}, "tle": {"line1": "1 36011U 97051US  25331.95002492  .00001923  00000+0  58853-3 0  9994", "line2": "2 36011  86.3418  41.7752 0016688 268.8947 217.0188 14.41259363643279"}}, "geometry": {"type": "Point", "coordinates": [-162.2028974664939, 80.17749320349839]}}, {"type": "Feature", "properties": {"norad_id": 36012, "name": "IRIDIUM 33 DEB", "group": "iridium-33-debris", "lat": 71.204985196792, "lon": -38.124325876661196, "alt_km": 936.823966451745, "timestamp": "2025-12-03T06:58:43.627244+00:00", "meta": {"OBJECT_NAME": "IRIDIUM 33 DEB", "OBJECT_ID": "1997-051UT", "EPOCH": "2025-11-30T09:13:21.766944", "MEAN_MOTION": 14.18317732, "ECCENTRICITY": 0.02146731, "INCLINATION": 86.4437, "RA_OF_ASC_NODE": 312.5163, "ARG_OF_PERICENTER": 303.0455, "MEAN_ANOMALY": 55.0272, "EPHEMERIS_TYPE": 0, "CLASSIFICATION_TYPE": "U", "NORAD_CAT_ID": 36012, "ELEMENT_SET_NO": 999, "REV_AT_EPOCH": 65309, "BSTAR": 0.0080758053, "MEAN_MOTION_DOT": 0.00020957, "MEAN_MOTION_DDOT": 0}, "tle": {"line1": "1 36012U 97051UT  25334.38427971  .00020957  00000+0  80758-2 0  9994", "line2": "2 36012  86.4437 312.5163 0214673 303.0455  55.0272 14.18317732653091"}}, "geometry": {"type": "Point", "coordinates": [-38.124325876661196, 71.204985196792]}}, {"type": "Feature", "properties": {"norad_id": 36028, "name": "IRIDIUM 33 DEB", "group": "iridium-33-debris", "lat": 83.85551925313351, "lon": -12.154945353372176, "alt_km": 561.0497328832253, "timestamp": "2025-12-03T06:58:43.627261+00:00", "meta": {"OBJECT_NAME": "IRIDIUM 33 DEB", "OBJECT_ID": "1997-051VK", "EPOCH": "2025-12-02T04:53:22.244352", "MEAN_MOTION": 14.94476089, "ECCENTRICITY": 0.0022096, "INCLINATION": 86.3209, "RA_OF_ASC_NODE": 311.6506, "ARG_OF_PERICENTER": 84.2868, "MEAN_ANOMALY": 276.0879, "EPHEMERIS_TYPE": 0, "CLASSIFICATION_TYPE": "U", "NORAD_CAT_ID": 36028, "ELEMENT_SET_NO": 999, "REV_AT_EPOCH": 86967, "BSTAR": 0.0026794, "MEAN_MOTION_DOT": 0.00029149, "MEAN_MOTION_DDOT": 0}, "tle": {"line1": "1 36028U 97051VK  25336.20372968  .00029149  00000+0  26794-2 0  9991", "line2": "2 36028  86.3209 311.6506 0022096  84.2868 276.0879 14.94476089869673"}}, "geometry": {"type": "Point", "coordinates": [-12.154945353372176, 83.85551925313351]}}, {"type": "Feature", "properties": {"norad_id": 36080, "name": "IRIDIUM 33 DEB", "group": "iridium-33-debris", "lat": 34.01656082737419, "lon": -170.38446977807712, "alt_km": 725.7420717373543, "timestamp": "2025-12-03T06:58:43.627277+00:00", "meta": {"OBJECT_NAME": "IRIDIUM 33 DEB", "OBJECT_ID": "1997-051VM", "EPOCH": "2025-12-02T08:43:24.933792", "MEAN_MOTION": 14.46532347, "ECCENTRICITY": 0.00171225, "INCLINATION": 86.321, "RA_OF_ASC_NODE": 12.5081, "ARG_OF_PERICENTER": 190.275, "MEAN_ANOMALY": 169.8105, "EPHEMERIS_TYPE": 0, "CLASSIFICATION_TYPE": "U", "NORAD_CAT_ID": 36080, "ELEMENT_SET_NO": 999, "REV_AT_EPOCH": 47264, "BSTAR": 0.00085919057, "MEAN_MOTION_DOT": 3.118e-05, "MEAN_MOTION_DDOT": 0}, "tle": {"line1": "1 36080U 97051VM  25336.36348303  .00003118  00000+0  85919-3 0  9995", "line2": "2 36080  86.3210  12.5081 0017122 190.2750 169.8105 14.46532347472645"}}, "geometry": {"type": "Point", "coordinates": [-170.38446977807712, 34.01656082737419]}}, {"type": "Feature", "properties": {"norad_id": 36083, "name": "IRIDIUM 33 DEB", "group": "iridium-33-debris", "lat": -6.507527308201102, "lon": 37.80307699402035, "alt_km": 754.0281748592333, "timestamp": "2025-12-03T06:58:43.627296+00:00", "meta": {"OBJECT_NAME": "IRIDIUM 33 DEB", "OBJECT_ID": "1997-051VQ", "EPOCH": "2025-11-30T10:46:50.880000", "MEAN_MOTION": 14.43133955, "ECCENTRICITY": 0.00245074, "INCLINATION": 86.345, "RA_OF_ASC_NODE": 39.4431, "ARG_OF_PERICENTER": 266.1752, "MEAN_ANOMALY": 93.6646, "EPHEMERIS_TYPE": 0, "CLASSIFICATION_TYPE": "U", "NORAD_CAT_ID": 36083, "ELEMENT_SET_NO": 999, "REV_AT_EPOCH": 85272, "BSTAR": 0.00060468289, "MEAN_MOTION_DOT": 2.056e-05, "MEAN_MOTION_DDOT": 0}, "tle": {"line1": "1 36083U 97051VQ  25334.44920000  .00002056  00000+0  60468-3 0  9997", "line2": "2 36083  86.3450  39.4431 0024507 266.1752  93.6646 14.43133955852725"}}, "geometry": {"type": "Point", "coordinates": [37.80307699402035, -6.507527308201102]}}, {"type": "Feature", "properties": {"norad_id": 36390, "name": "IRIDIUM 33 DEB", "group": "iridium-33-debris", "lat": -41.992810025315464, "lon": 127.07222490128785, "alt_km": 639.034351304188, "timestamp": "2025-12-03T06:58:43.627310+00:00", "meta": {"OBJECT_NAME": "IRIDIUM 33 DEB", "OBJECT_ID": "1997-051VU", "EPOCH": "2025-11-30T04:37:26.668128", "MEAN_MOTION": 14.73329322, "ECCENTRICITY": 0.00285998, "INCLINATION": 86.289, "RA_OF_ASC_NODE": 305.1428, "ARG_OF_PERICENTER": 206.0853, "MEAN_ANOMALY": 153.8925, "EPHEMERIS_TYPE": 0, "CLASSIFICATION_TYPE": "U", "NORAD_CAT_ID": 36390, "ELEMENT_SET_NO": 999, "REV_AT_EPOCH": 66077, "BSTAR": 0.001268982, "MEAN_MOTION_DOT": 8.29e-05, "MEAN_MOTION_DDOT": 0}, "tle": {"line1": "1 36390U 97051VU  25334.19266977  .00008290  00000+0  12690-2 0  9995", "line2": "2 36390  86.2890 305.1428 0028599 206.0853 153.8925 14.73329322660771"}}, "geometry": {"type": "Point", "coordinates": [127.07222490128785, -41.992810025315464]}}, {"type": "Feature", "properties": {"norad_id": 36483, "name": "IRIDIUM 33 DEB", "group": "iridium-33-debris", "lat": 68.08625825757439, "lon": 65.58638260994174, "alt_km": 732.1752938438176, "timestamp": "2025-12-03T06:58:43.627321+00:00", "meta": {"OBJECT_NAME": "IRIDIUM 33 DEB", "OBJECT_ID": "1997-051VZ", "EPOCH": "2025-12-01T23:06:08.589024", "MEAN_MOTION": 14.45743317, "ECCENTRICITY": 0.00104053, "INCLINATION": 86.3803, "RA_OF_ASC_NODE": 57.101, "ARG_OF_PERICENTER": 156.2304, "MEAN_ANOMALY": 203.9381, "EPHEMERIS_TYPE": 0, "CLASSIFICATION_TYPE": "U", "NORAD_CAT_ID": 36483, "ELEMENT_SET_NO": 999, "REV_AT_EPOCH": 64990, "BSTAR": 0.00063754459, "MEAN_MOTION_DOT": 2.279e-05, "MEAN_MOTION_DDOT": 0}, "tle": {"line1": "1 36483U 97051VZ  25335.96259941  .00002279  00000+0  63754-3 0  9996", "line2": "2 36483  86.3803  57.1010 0010405 156.2304 203.9381 14.45743317649902"}}, "geometry": {"type": "Point", "coordinates": [65.58638260994174, 68.08625825757439]}}, {"type": "Feature", "properties": {"norad_id": 36490, "name": "IRIDIUM 33 DEB", "group": "iridium-33-debris", "lat": 17.67820263184573, "lon": 15.885339946092346, "alt_km": 642.6799361905069, "timestamp": "2025-12-03T06:58:43.627345+00:00", "meta": {"OBJECT_NAME": "IRIDIUM 33 DEB", "OBJECT_ID": "1997-051WG", "EPOCH": "2025-12-02T12:59:56.522688", "MEAN_MOTION": 14.75843044, "ECCENTRICITY": 0.00054743, "INCLINATION": 86.3666, "RA_OF_ASC_NODE": 15.0624, "ARG_OF_PERICENTER": 106.2458, "MEAN_ANOMALY": 253.9363, "EPHEMERIS_TYPE": 0, "CLASSIFICATION_TYPE": "U", "NORAD_CAT_ID": 36490, "ELEMENT_SET_NO": 999, "REV_AT_EPOCH": 86334, "BSTAR": 0.0019303034, "MEAN_MOTION_DOT": 0.00013277, "MEAN_MOTION_DDOT": 0}, "tle": {"line1": "1 36490U 97051WG  25336.54162642  .00013277  00000+0  19303-2 0  9990", "line2": "2 36490  86.3666  15.0624 0005474 106.2458 253.9363 14.75843044863348"}}, "geometry": {"type": "Point", "coordinates": [15.885339946092346, 17.67820263184573]}}, {"type": "Feature", "properties": {"norad_id": 36493, "name": "IRIDIUM 33 DEB", "group": "iridium-33-debris", "lat": -49.448571953490514, "lon": 11.61042385456999, "alt_km": 683.1627204067581, "timestamp": "2025-12-03T06:58:43.627356+00:00", "meta": {"OBJECT_NAME": "IRIDIUM 33 DEB", "OBJECT_ID": "1997-051WK", "EPOCH": "2025-11-29T09:45:52.591680", "MEAN_MOTION": 14.64969461, "ECCENTRICITY": 0.00117036, "INCLINATION": 86.359, "RA_OF_ASC_NODE": 17.6018, "ARG_OF_PERICENTER": 48.0633, "MEAN_ANOMALY": 312.1576, "EPHEMERIS_TYPE": 0, "CLASSIFICATION_TYPE": "U", "NORAD_CAT_ID": 36493, "ELEMENT_SET_NO": 999, "REV_AT_EPOCH": 74323, "BSTAR": 0.0011558423, "MEAN_MOTION_DOT": 6.216e-05, "MEAN_MOTION_DDOT": 0}, "tle": {"line1": "1 36493U 97051WK  25333.40685870  .00006216  00000+0  11558-2 0  9997", "line2": "2 36493  86.3590  17.6018 0011703  48.0633 312.1576 14.64969461743231"}}, "geometry": {"type": "Point", "coordinates": [11.61042385456999, -49.448571953490514]}}, {"type": "Feature", "properties": {"norad_id": 37548, "name": "IRIDIUM 33 DEB", "group": "iridium-33-debris", "lat": -69.74608136410426, "lon": -122.56572171561179, "alt_km": 714.0162909783603, "timestamp": "2025-12-03T06:58:43.627366+00:00", "meta": {"OBJECT_NAME": "IRIDIUM 33 DEB", "OBJECT_ID": "1997-051XH", "EPOCH": "2025-11-29T22:23:36.250944", "MEAN_MOTION": 14.5113469, "ECCENTRICITY": 0.00243457, "INCLINATION": 86.3524, "RA_OF_ASC_NODE": 48.9393, "ARG_OF_PERICENTER": 232.6782, "MEAN_ANOMALY": 127.2204, "EPHEMERIS_TYPE": 0, "CLASSIFICATION_TYPE": "U", "NORAD_CAT_ID": 37548, "ELEMENT_SET_NO": 999, "REV_AT_EPOCH": 65346, "BSTAR": 0.0012745087, "MEAN_MOTION_DOT": 5.093e-05, "MEAN_MOTION_DDOT": 0}, "tle": {"line1": "1 37548U 97051XH  25333.93305846  .00005093  00000+0  12745-2 0  9990", "line2": "2 37548  86.3524  48.9393 0024345 232.6782 127.2204 14.51134690653467"}}, "geometry": {"type": "Point", "coordinates": [-122.56572171561179, -69.74608136410426]}}]}